<?xml version="1.0" encoding="UTF-8"?>
<ndm xmlns:xsi="http://www.w3.org/2001/XMLSchema-instance" xsi:noNamespaceSchemaLocation="https://sanaregistry.org/r/ndmxml_unqualified/ndmxml-2.0.0-master-2.0.xsd">
<omm id="CCSDS_OMM_VERS" version="2.0">
<header><CREATION_DATE/><ORIGINATOR/></header><body><segment><metadata><OBJECT_NAME>KUIPER-00089</OBJECT_NAME><OBJECT_ID>2025-151U</OBJECT_ID><CENTER_NAME>EARTH</CENTER_NAME><REF_FRAME>TEME</REF_FRAME><TIME_SYSTEM>UTC</TIME_SYSTEM><MEAN_ELEMENT_THEORY>SGP4</MEAN_ELEMENT_THEORY></metadata><data><meanElements><EPOCH>2025-09-16T12:57:01.937664</EPOCH><MEAN_MOTION>15.36808615</MEAN_MOTION><ECCENTRICITY>.00079121</ECCENTRICITY><INCLINATION>51.8797</INCLINATION><RA_OF_ASC_NODE>347.2478</RA_OF_ASC_NODE><ARG_OF_PERICENTER>18.2283</ARG_OF_PERICENTER><MEAN_ANOMALY>341.8986</MEAN_ANOMALY></meanElements><tleParameters><EPHEMERIS_TYPE>0</EPHEMERIS_TYPE><CLASSIFICATION_TYPE>U</CLASSIFICATION_TYPE><NORAD_CAT_ID>64834</NORAD_CAT_ID><ELEMENT_SET_NO>999</ELEMENT_SET_NO><REV_AT_EPOCH>956</REV_AT_EPOCH><BSTAR>.92357642E-3</BSTAR><MEAN_MOTION_DOT>.3353E-3</MEAN_MOTION_DOT><MEAN_MOTION_DDOT>0</MEAN_MOTION_DDOT></tleParameters></data></segment></body></omm>
<omm id="CCSDS_OMM_VERS" version="2.0">
<header><CREATION_DATE/><ORIGINATOR/></header><body><segment><metadata><OBJECT_NAME>KUIPER-00090</OBJECT_NAME><OBJECT_ID>2025-151V</OBJECT_ID><CENTER_NAME>EARTH</CENTER_NAME><REF_FRAME>TEME</REF_FRAME><TIME_SYSTEM>UTC</TIME_SYSTEM><MEAN_ELEMENT_THEORY>SGP4</MEAN_ELEMENT_THEORY></metadata><data><meanElements><EPOCH>2025-09-16T13:11:48.508800</EPOCH><MEAN_MOTION>15.36531405</MEAN_MOTION><ECCENTRICITY>.00075335</ECCENTRICITY><INCLINATION>51.8804</INCLINATION><RA_OF_ASC_NODE>347.3098</RA_OF_ASC_NODE><ARG_OF_PERICENTER>24.0371</ARG_OF_PERICENTER><MEAN_ANOMALY>336.0966</MEAN_ANOMALY></meanElements><tleParameters><EPHEMERIS_TYPE>0</EPHEMERIS_TYPE><CLASSIFICATION_TYPE>U</CLASSIFICATION_TYPE><NORAD_CAT_ID>64835</NORAD_CAT_ID><ELEMENT_SET_NO>999</ELEMENT_SET_NO><REV_AT_EPOCH>956</REV_AT_EPOCH><BSTAR>.99045921E-3</BSTAR><MEAN_MOTION_DOT>.35671E-3</MEAN_MOTION_DOT><MEAN_MOTION_DDOT>0</MEAN_MOTION_DDOT></tleParameters></data></segment></body></omm>
<omm id="CCSDS_OMM_VERS" version="2.0">
<header><CREATION_DATE/><ORIGINATOR/></header><body><segment><metadata><OBJECT_NAME>KUIPER-00091</OBJECT_NAME><OBJECT_ID>2025-151W</OBJECT_ID><CENTER_NAME>EARTH</CENTER_NAME><REF_FRAME>TEME</REF_FRAME><TIME_SYSTEM>UTC</TIME_SYSTEM><MEAN_ELEMENT_THEORY>SGP4</MEAN_ELEMENT_THEORY></metadata><data><meanElements><EPOCH>2025-09-16T12:38:43.563840</EPOCH><MEAN_MOTION>15.36988449</MEAN_MOTION><ECCENTRICITY>.00073107</ECCENTRICITY><INCLINATION>51.8796</INCLINATION><RA_OF_ASC_NODE>347.1571</RA_OF_ASC_NODE><ARG_OF_PERICENTER>4.9679</ARG_OF_PERICENTER><MEAN_ANOMALY>355.1379</MEAN_ANOMALY></meanElements><tleParameters><EPHEMERIS_TYPE>0</EPHEMERIS_TYPE><CLASSIFICATION_TYPE>U</CLASSIFICATION_TYPE><NORAD_CAT_ID>64836</NORAD_CAT_ID><ELEMENT_SET_NO>999</ELEMENT_SET_NO><REV_AT_EPOCH>956</REV_AT_EPOCH><BSTAR>.11036991E-2</BSTAR><MEAN_MOTION_DOT>.40413E-3</MEAN_MOTION_DOT><MEAN_MOTION_DDOT>0</MEAN_MOTION_DDOT></tleParameters></data></segment></body></omm>
<omm id="CCSDS_OMM_VERS" version="2.0">
<header><CREATION_DATE/><ORIGINATOR/></header><body><segment><metadata><OBJECT_NAME>KUIPER-00092</OBJECT_NAME><OBJECT_ID>2025-151X</OBJECT_ID><CENTER_NAME>EARTH</CENTER_NAME><REF_FRAME>TEME</REF_FRAME><TIME_SYSTEM>UTC</TIME_SYSTEM><MEAN_ELEMENT_THEORY>SGP4</MEAN_ELEMENT_THEORY></metadata><data><meanElements><EPOCH>2025-09-16T14:00:04.000032</EPOCH><MEAN_MOTION>15.25550705</MEAN_MOTION><ECCENTRICITY>.00091639</ECCENTRICITY><INCLINATION>51.8822</INCLINATION><RA_OF_ASC_NODE>347.2908</RA_OF_ASC_NODE><ARG_OF_PERICENTER>4.8679</ARG_OF_PERICENTER><MEAN_ANOMALY>120.5096</MEAN_ANOMALY></meanElements><tleParameters><EPHEMERIS_TYPE>0</EPHEMERIS_TYPE><CLASSIFICATION_TYPE>U</CLASSIFICATION_TYPE><NORAD_CAT_ID>64837</NORAD_CAT_ID><ELEMENT_SET_NO>999</ELEMENT_SET_NO><REV_AT_EPOCH>593</REV_AT_EPOCH><BSTAR>.88886904E-3</BSTAR><MEAN_MOTION_DOT>.22613E-3</MEAN_MOTION_DOT><MEAN_MOTION_DDOT>0</MEAN_MOTION_DDOT></tleParameters></data></segment></body></omm>
<omm id="CCSDS_OMM_VERS" version="2.0">
<header><CREATION_DATE/><ORIGINATOR/></header><body><segment><metadata><OBJECT_NAME>KUIPER-00093</OBJECT_NAME><OBJECT_ID>2025-151Y</OBJECT_ID><CENTER_NAME>EARTH</CENTER_NAME><REF_FRAME>TEME</REF_FRAME><TIME_SYSTEM>UTC</TIME_SYSTEM><MEAN_ELEMENT_THEORY>SGP4</MEAN_ELEMENT_THEORY></metadata><data><meanElements><EPOCH>2025-09-16T14:00:04.000032</EPOCH><MEAN_MOTION>15.19128680</MEAN_MOTION><ECCENTRICITY>.00114949</ECCENTRICITY><INCLINATION>51.8857</INCLINATION><RA_OF_ASC_NODE>348.0215</RA_OF_ASC_NODE><ARG_OF_PERICENTER>28.0745</ARG_OF_PERICENTER><MEAN_ANOMALY>56.7353</MEAN_ANOMALY></meanElements><tleParameters><EPHEMERIS_TYPE>0</EPHEMERIS_TYPE><CLASSIFICATION_TYPE>U</CLASSIFICATION_TYPE><NORAD_CAT_ID>64838</NORAD_CAT_ID><ELEMENT_SET_NO>999</ELEMENT_SET_NO><REV_AT_EPOCH>310</REV_AT_EPOCH><BSTAR>-.42771161E-2</BSTAR><MEAN_MOTION_DOT>-.90401E-3</MEAN_MOTION_DOT><MEAN_MOTION_DDOT>0</MEAN_MOTION_DDOT></tleParameters></data></segment></body></omm>
<omm id="CCSDS_OMM_VERS" version="2.0">
<header><CREATION_DATE/><ORIGINATOR/></header><body><segment><metadata><OBJECT_NAME>KUIPER-00094</OBJECT_NAME><OBJECT_ID>2025-151Z</OBJECT_ID><CENTER_NAME>EARTH</CENTER_NAME><REF_FRAME>TEME</REF_FRAME><TIME_SYSTEM>UTC</TIME_SYSTEM><MEAN_ELEMENT_THEORY>SGP4</MEAN_ELEMENT_THEORY></metadata><data><meanElements><EPOCH>2025-09-16T14:14:30.724224</EPOCH><MEAN_MOTION>15.35721532</MEAN_MOTION><ECCENTRICITY>.00076012</ECCENTRICITY><INCLINATION>51.8784</INCLINATION><RA_OF_ASC_NODE>346.8474</RA_OF_ASC_NODE><ARG_OF_PERICENTER>8.8107</ARG_OF_PERICENTER><MEAN_ANOMALY>351.3012</MEAN_ANOMALY></meanElements><tleParameters><EPHEMERIS_TYPE>0</EPHEMERIS_TYPE><CLASSIFICATION_TYPE>U</CLASSIFICATION_TYPE><NORAD_CAT_ID>64839</NORAD_CAT_ID><ELEMENT_SET_NO>999</ELEMENT_SET_NO><REV_AT_EPOCH>957</REV_AT_EPOCH><BSTAR>.13380675E-2</BSTAR><MEAN_MOTION_DOT>.47151E-3</MEAN_MOTION_DOT><MEAN_MOTION_DDOT>0</MEAN_MOTION_DDOT></tleParameters></data></segment></body></omm>
<omm id="CCSDS_OMM_VERS" version="2.0">
<header><CREATION_DATE/><ORIGINATOR/></header><body><segment><metadata><OBJECT_NAME>KUIPER-00081</OBJECT_NAME><OBJECT_ID>2025-171A</OBJECT_ID><CENTER_NAME>EARTH</CENTER_NAME><REF_FRAME>TEME</REF_FRAME><TIME_SYSTEM>UTC</TIME_SYSTEM><MEAN_ELEMENT_THEORY>SGP4</MEAN_ELEMENT_THEORY></metadata><data><meanElements><EPOCH>2025-09-15T07:54:25.108992</EPOCH><MEAN_MOTION>15.36551832</MEAN_MOTION><ECCENTRICITY>.0003401</ECCENTRICITY><INCLINATION>51.8741</INCLINATION><RA_OF_ASC_NODE>236.7320</RA_OF_ASC_NODE><ARG_OF_PERICENTER>247.5338</ARG_OF_PERICENTER><MEAN_ANOMALY>112.5289</MEAN_ANOMALY></meanElements><tleParameters><EPHEMERIS_TYPE>0</EPHEMERIS_TYPE><CLASSIFICATION_TYPE>U</CLASSIFICATION_TYPE><NORAD_CAT_ID>65132</NORAD_CAT_ID><ELEMENT_SET_NO>999</ELEMENT_SET_NO><REV_AT_EPOCH>660</REV_AT_EPOCH><BSTAR>.29168946E-2</BSTAR><MEAN_MOTION_DOT>.10681E-2</MEAN_MOTION_DOT><MEAN_MOTION_DDOT>0</MEAN_MOTION_DDOT></tleParameters></data></segment></body></omm>
<omm id="CCSDS_OMM_VERS" version="2.0">
<header><CREATION_DATE/><ORIGINATOR/></header><body><segment><metadata><OBJECT_NAME>KUIPER-00088</OBJECT_NAME><OBJECT_ID>2025-171B</OBJECT_ID><CENTER_NAME>EARTH</CENTER_NAME><REF_FRAME>TEME</REF_FRAME><TIME_SYSTEM>UTC</TIME_SYSTEM><MEAN_ELEMENT_THEORY>SGP4</MEAN_ELEMENT_THEORY></metadata><data><meanElements><EPOCH>2025-09-16T05:45:54.680544</EPOCH><MEAN_MOTION>15.36630703</MEAN_MOTION><ECCENTRICITY>.00041089</ECCENTRICITY><INCLINATION>51.8752</INCLINATION><RA_OF_ASC_NODE>232.3381</RA_OF_ASC_NODE><ARG_OF_PERICENTER>243.8117</ARG_OF_PERICENTER><MEAN_ANOMALY>116.2447</MEAN_ANOMALY></meanElements><tleParameters><EPHEMERIS_TYPE>0</EPHEMERIS_TYPE><CLASSIFICATION_TYPE>U</CLASSIFICATION_TYPE><NORAD_CAT_ID>65133</NORAD_CAT_ID><ELEMENT_SET_NO>999</ELEMENT_SET_NO><REV_AT_EPOCH>674</REV_AT_EPOCH><BSTAR>.15074818E-2</BSTAR><MEAN_MOTION_DOT>.54777E-3</MEAN_MOTION_DOT><MEAN_MOTION_DDOT>0</MEAN_MOTION_DDOT></tleParameters></data></segment></body></omm>

</ndm>
