KUIPER-00089            
1 64834U 25151U   25259.53960576  .00033530  00000+0  92358-3 0  9996
2 64834  51.8797 347.2478 0007912  18.2283 341.8986 15.36808615  9564
KUIPER-00090            
1 64835U 25151V   25259.54986700  .00035671  00000+0  99046-3 0  9994
2 64835  51.8804 347.3098 0007533  24.0371 336.0966 15.36531405  9569
KUIPER-00091            
1 64836U 25151W   25259.52689310  .00040413  00000+0  11037-2 0  9993
2 64836  51.8796 347.1571 0007310   4.9679 355.1379 15.36988449  9569
KUIPER-00092            
1 64837U 25151X   25259.58337963  .00022613  00000+0  88887-3 0  9994
2 64837  51.8822 347.2908 0009163   4.8679 120.5096 15.25550705  5937
KUIPER-00093            
1 64838U 25151Y   25259.58337963 -.00090401  00000+0 -42771-2 0  9998
2 64838  51.8857 348.0215 0011494  28.0745  56.7353 15.19128680  3107
KUIPER-00094            
1 64839U 25151Z   25259.59341116  .00047151  00000+0  13381-2 0  9992
2 64839  51.8784 346.8474 0007601   8.8107 351.3012 15.35721532  9579
KUIPER-00081            
1 65132U 25171A   25258.32945728  .00106810  00000+0  29169-2 0  9999
2 65132  51.8741 236.7320 0003401 247.5338 112.5289 15.36551832  6607
KUIPER-00088            
1 65133U 25171B   25259.24021621  .00054777  00000+0  15075-2 0  9994
2 65133  51.8752 232.3381 0004108 243.8117 116.2447 15.36630703  6745
